[{"OBJECT_NAME":"STARLINK-37204","OBJECT_ID":"2026-059J","EPOCH":"2026-04-02T06:00:02.999808","MEAN_MOTION":15.80845986,"ECCENTRICITY":8.629e-5,"INCLINATION":53.1595,"RA_OF_ASC_NODE":244.7537,"ARG_OF_PERICENTER":84.1086,"MEAN_ANOMALY":170.7193,"EPHEMERIS_TYPE":0,"CLASSIFICATION_TYPE":"U","NORAD_CAT_ID":68329,"ELEMENT_SET_NO":999,"REV_AT_EPOCH":282,"BSTAR":0.00012393308,"MEAN_MOTION_DOT":0.00023799,"MEAN_MOTION_DDOT":0},{"OBJECT_NAME":"STARLINK-37001","OBJECT_ID":"2026-059K","EPOCH":"2026-04-02T06:00:02.999808","MEAN_MOTION":15.80881162,"ECCENTRICITY":0.00011839,"INCLINATION":53.1596,"RA_OF_ASC_NODE":244.7357,"ARG_OF_PERICENTER":102.4942,"MEAN_ANOMALY":160.8664,"EPHEMERIS_TYPE":0,"CLASSIFICATION_TYPE":"U","NORAD_CAT_ID":68330,"ELEMENT_SET_NO":999,"REV_AT_EPOCH":282,"BSTAR":-0.00020705747,"MEAN_MOTION_DOT":-0.00041386,"MEAN_MOTION_DDOT":0},{"OBJECT_NAME":"STARLINK-36932","OBJECT_ID":"2026-059L","EPOCH":"2026-04-02T06:00:02.999808","MEAN_MOTION":15.80867252,"ECCENTRICITY":9.954e-5,"INCLINATION":53.1596,"RA_OF_ASC_NODE":244.7269,"ARG_OF_PERICENTER":78.5308,"MEAN_ANOMALY":189.1084,"EPHEMERIS_TYPE":0,"CLASSIFICATION_TYPE":"U","NORAD_CAT_ID":68331,"ELEMENT_SET_NO":999,"REV_AT_EPOCH":282,"BSTAR":-3.8895233e-5,"MEAN_MOTION_DOT":-8.365e-5,"MEAN_MOTION_DDOT":0},{"OBJECT_NAME":"STARLINK-37205","OBJECT_ID":"2026-059M","EPOCH":"2026-04-02T06:00:02.999808","MEAN_MOTION":15.80829436,"ECCENTRICITY":9.472e-5,"INCLINATION":53.1595,"RA_OF_ASC_NODE":244.7181,"ARG_OF_PERICENTER":85.4783,"MEAN_ANOMALY":186.4472,"EPHEMERIS_TYPE":0,"CLASSIFICATION_TYPE":"U","NORAD_CAT_ID":68332,"ELEMENT_SET_NO":999,"REV_AT_EPOCH":282,"BSTAR":0.00027439051,"MEAN_MOTION_DOT":0.00053685,"MEAN_MOTION_DDOT":0},{"OBJECT_NAME":"STARLINK-37180","OBJECT_ID":"2026-059N","EPOCH":"2026-04-02T06:00:02.999808","MEAN_MOTION":15.80837967,"ECCENTRICITY":7.221e-5,"INCLINATION":53.1597,"RA_OF_ASC_NODE":244.7093,"ARG_OF_PERICENTER":59.3244,"MEAN_ANOMALY":216.862,"EPHEMERIS_TYPE":0,"CLASSIFICATION_TYPE":"U","NORAD_CAT_ID":68333,"ELEMENT_SET_NO":999,"REV_AT_EPOCH":282,"BSTAR":0.00018782154,"MEAN_MOTION_DOT":0.00036468,"MEAN_MOTION_DDOT":0},{"OBJECT_NAME":"STARLINK-37191","OBJECT_ID":"2026-059P","EPOCH":"2026-04-02T06:00:02.999808","MEAN_MOTION":15.80875947,"ECCENTRICITY":0.00011041,"INCLINATION":53.1595,"RA_OF_ASC_NODE":244.7005,"ARG_OF_PERICENTER":91.9317,"MEAN_ANOMALY":188.5155,"EPHEMERIS_TYPE":0,"CLASSIFICATION_TYPE":"U","NORAD_CAT_ID":68334,"ELEMENT_SET_NO":999,"REV_AT_EPOCH":282,"BSTAR":-0.00012146274,"MEAN_MOTION_DOT":-0.00024606,"MEAN_MOTION_DDOT":0},{"OBJECT_NAME":"STARLINK-37217","OBJECT_ID":"2026-059Q","EPOCH":"2026-04-02T06:00:02.999808","MEAN_MOTION":15.80872996,"ECCENTRICITY":8.475e-5,"INCLINATION":53.1596,"RA_OF_ASC_NODE":244.6915,"ARG_OF_PERICENTER":80.8973,"MEAN_ANOMALY":203.8193,"EPHEMERIS_TYPE":0,"CLASSIFICATION_TYPE":"U","NORAD_CAT_ID":68335,"ELEMENT_SET_NO":999,"REV_AT_EPOCH":282,"BSTAR":-3.6181414e-5,"MEAN_MOTION_DOT":-7.833e-5,"MEAN_MOTION_DDOT":0},{"OBJECT_NAME":"STARLINK-37143","OBJECT_ID":"2026-059R","EPOCH":"2026-04-02T06:00:02.999808","MEAN_MOTION":15.80844966,"ECCENTRICITY":7.631e-5,"INCLINATION":53.1595,"RA_OF_ASC_NODE":244.6829,"ARG_OF_PERICENTER":91.6983,"MEAN_ANOMALY":197.3068,"EPHEMERIS_TYPE":0,"CLASSIFICATION_TYPE":"U","NORAD_CAT_ID":68336,"ELEMENT_SET_NO":999,"REV_AT_EPOCH":282,"BSTAR":0.00011983251,"MEAN_MOTION_DOT":0.00022985,"MEAN_MOTION_DDOT":0},{"OBJECT_NAME":"STARLINK-36237","OBJECT_ID":"2026-059S","EPOCH":"2026-04-02T06:00:02.999808","MEAN_MOTION":15.80824699,"ECCENTRICITY":9.484e-5,"INCLINATION":53.1595,"RA_OF_ASC_NODE":244.6739,"ARG_OF_PERICENTER":99.4849,"MEAN_ANOMALY":193.802,"EPHEMERIS_TYPE":0,"CLASSIFICATION_TYPE":"U","NORAD_CAT_ID":68337,"ELEMENT_SET_NO":999,"REV_AT_EPOCH":282,"BSTAR":0.00024788405,"MEAN_MOTION_DOT":0.00048391,"MEAN_MOTION_DDOT":0},{"OBJECT_NAME":"STARLINK-36254","OBJECT_ID":"2026-059T","EPOCH":"2026-04-02T06:00:02.999808","MEAN_MOTION":15.80828494,"ECCENTRICITY":0.00010728,"INCLINATION":53.1596,"RA_OF_ASC_NODE":244.6561,"ARG_OF_PERICENTER":85.5244,"MEAN_ANOMALY":216.3033,"EPHEMERIS_TYPE":0,"CLASSIFICATION_TYPE":"U","NORAD_CAT_ID":68338,"ELEMENT_SET_NO":999,"REV_AT_EPOCH":282,"BSTAR":0.00017569527,"MEAN_MOTION_DOT":0.00034043,"MEAN_MOTION_DDOT":0},{"OBJECT_NAME":"STARLINK-37200","OBJECT_ID":"2026-059U","EPOCH":"2026-04-02T06:00:02.999808","MEAN_MOTION":15.80848063,"ECCENTRICITY":8.243e-5,"INCLINATION":53.1595,"RA_OF_ASC_NODE":244.6653,"ARG_OF_PERICENTER":115.5922,"MEAN_ANOMALY":181.9539,"EPHEMERIS_TYPE":0,"CLASSIFICATION_TYPE":"U","NORAD_CAT_ID":68339,"ELEMENT_SET_NO":999,"REV_AT_EPOCH":282,"BSTAR":8.8010421e-5,"MEAN_MOTION_DOT":0.00016686,"MEAN_MOTION_DDOT":0},{"OBJECT_NAME":"STARLINK-37185","OBJECT_ID":"2026-059V","EPOCH":"2026-04-02T06:00:02.999808","MEAN_MOTION":15.80868131,"ECCENTRICITY":8.078e-5,"INCLINATION":53.1595,"RA_OF_ASC_NODE":244.6478,"ARG_OF_PERICENTER":81.7369,"MEAN_ANOMALY":224.3538,"EPHEMERIS_TYPE":0,"CLASSIFICATION_TYPE":"U","NORAD_CAT_ID":68340,"ELEMENT_SET_NO":999,"REV_AT_EPOCH":282,"BSTAR":-0.0003462474,"MEAN_MOTION_DOT":-0.0006848,"MEAN_MOTION_DDOT":0},{"OBJECT_NAME":"STARLINK-37181","OBJECT_ID":"2026-059W","EPOCH":"2026-04-02T06:00:02.999808","MEAN_MOTION":15.80860341,"ECCENTRICITY":0.00010327,"INCLINATION":53.1594,"RA_OF_ASC_NODE":244.6385,"ARG_OF_PERICENTER":64.09,"MEAN_ANOMALY":246.271,"EPHEMERIS_TYPE":0,"CLASSIFICATION_TYPE":"U","NORAD_CAT_ID":68341,"ELEMENT_SET_NO":999,"REV_AT_EPOCH":282,"BSTAR":8.6153336e-5,"MEAN_MOTION_DOT":0.00016327,"MEAN_MOTION_DDOT":0},{"OBJECT_NAME":"STARLINK-37192","OBJECT_ID":"2026-059X","EPOCH":"2026-04-02T06:00:02.999808","MEAN_MOTION":15.80835731,"ECCENTRICITY":0.00010547,"INCLINATION":53.1594,"RA_OF_ASC_NODE":244.6209,"ARG_OF_PERICENTER":87.5371,"MEAN_ANOMALY":231.3811,"EPHEMERIS_TYPE":0,"CLASSIFICATION_TYPE":"U","NORAD_CAT_ID":68342,"ELEMENT_SET_NO":999,"REV_AT_EPOCH":282,"BSTAR":0.00020515315,"MEAN_MOTION_DOT":0.00039909,"MEAN_MOTION_DDOT":0},{"OBJECT_NAME":"STARLINK-37158","OBJECT_ID":"2026-059Y","EPOCH":"2026-04-02T06:00:02.999808","MEAN_MOTION":15.80877413,"ECCENTRICITY":8.043e-5,"INCLINATION":53.1594,"RA_OF_ASC_NODE":244.6121,"ARG_OF_PERICENTER":65.9832,"MEAN_ANOMALY":257.189,"EPHEMERIS_TYPE":0,"CLASSIFICATION_TYPE":"U","NORAD_CAT_ID":68343,"ELEMENT_SET_NO":999,"REV_AT_EPOCH":282,"BSTAR":-0.00022596073,"MEAN_MOTION_DOT":-0.00045071,"MEAN_MOTION_DDOT":0},{"OBJECT_NAME":"STARLINK-36380","OBJECT_ID":"2026-059Z","EPOCH":"2026-04-02T06:00:02.999808","MEAN_MOTION":15.80836871,"ECCENTRICITY":4.821e-5,"INCLINATION":53.1592,"RA_OF_ASC_NODE":244.6299,"ARG_OF_PERICENTER":22.973,"MEAN_ANOMALY":291.669,"EPHEMERIS_TYPE":0,"CLASSIFICATION_TYPE":"U","NORAD_CAT_ID":68344,"ELEMENT_SET_NO":999,"REV_AT_EPOCH":282,"BSTAR":0.00013048285,"MEAN_MOTION_DOT":0.00025087,"MEAN_MOTION_DDOT":0}]
