STARLINK-37204          
1 68329U 26059J   26092.25003472  .00023799  00000+0  12393-3 0  9992
2 68329  53.1595 244.7537 0000862  84.1086 170.7193 15.80845986  2827
STARLINK-37001          
1 68330U 26059K   26092.25003472 -.00041386  00000+0 -20706-3 0  9995
2 68330  53.1596 244.7357 0001183 102.4942 160.8664 15.80881162  2821
STARLINK-36932          
1 68331U 26059L   26092.25003472 -.00008365  00000+0 -38895-4 0  9995
2 68331  53.1596 244.7269 0000995  78.5308 189.1084 15.80867252  2827
STARLINK-37205          
1 68332U 26059M   26092.25003472  .00053685  00000+0  27439-3 0  9990
2 68332  53.1595 244.7181 0000947  85.4783 186.4472 15.80829436  2824
STARLINK-37180          
1 68333U 26059N   26092.25003472  .00036468  00000+0  18782-3 0  9992
2 68333  53.1597 244.7093 0000722  59.3244 216.8620 15.80837967  2823
STARLINK-37191          
1 68334U 26059P   26092.25003472 -.00024606  00000+0 -12146-3 0  9994
2 68334  53.1595 244.7005 0001104  91.9317 188.5155 15.80875947  2821
STARLINK-37217          
1 68335U 26059Q   26092.25003472 -.00007833  00000+0 -36181-4 0  9994
2 68335  53.1596 244.6915 0000847  80.8973 203.8193 15.80872996  2824
STARLINK-37143          
1 68336U 26059R   26092.25003472  .00022985  00000+0  11983-3 0  9990
2 68336  53.1595 244.6829 0000763  91.6983 197.3068 15.80844966  2820
STARLINK-36237          
1 68337U 26059S   26092.25003472  .00048391  00000+0  24788-3 0  9997
2 68337  53.1595 244.6739 0000948  99.4849 193.8020 15.80824699  2823
STARLINK-36254          
1 68338U 26059T   26092.25003472  .00034043  00000+0  17570-3 0  9998
2 68338  53.1596 244.6561 0001072  85.5244 216.3033 15.80828494  2824
STARLINK-37200          
1 68339U 26059U   26092.25003472  .00016686  00000+0  88010-4 0  9990
2 68339  53.1595 244.6653 0000824 115.5922 181.9539 15.80848063  2829
STARLINK-37185          
1 68340U 26059V   26092.25003472 -.00068480  00000+0 -34625-3 0  9995
2 68340  53.1595 244.6478 0000807  81.7369 224.3538 15.80868131  2825
STARLINK-37181          
1 68341U 26059W   26092.25003472  .00016327  00000+0  86153-4 0  9991
2 68341  53.1594 244.6385 0001032  64.0900 246.2710 15.80860341  2828
STARLINK-37192          
1 68342U 26059X   26092.25003472  .00039909  00000+0  20515-3 0  9992
2 68342  53.1594 244.6209 0001054  87.5371 231.3811 15.80835731  2822
STARLINK-37158          
1 68343U 26059Y   26092.25003472 -.00045071  00000+0 -22596-3 0  9993
2 68343  53.1594 244.6121 0000804  65.9832 257.1890 15.80877413  2826
STARLINK-36380          
1 68344U 26059Z   26092.25003472  .00025087  00000+0  13048-3 0  9999
2 68344  53.1592 244.6299 0000482  22.9730 291.6690 15.80836871  2827
